NORAD_CAT_ID,OBJECT_NAME,OBJECT_TYPE,EPOCH,MEAN_MOTION,ECCENTRICITY,INCLINATION,RA_OF_ASC_NODE,ARG_OF_PERICENTER,MEAN_ANOMALY,BSTAR,MEAN_MOTION_DOT,MEAN_MOTION_DDOT,TLE_LINE0,TLE_LINE1,TLE_LINE2,SEMIMAJOR_AXIS,PERIOD,APOGEE,PERIGEE,DECAYED
52838.0,STARLINK-4092,PAYLOAD,2023-08-04 10:58:25,15.08842299,0.0001223,53.2174,330.8971,81.8158,278.2972,-2.1957e-05,-6.37e-06,0.0,0 STARLINK-4092,1 52838U 22062J   23216.45723695 -.00000637  00000-0 -21957-4 0  9999,2 52838  53.2174 330.8971 0001223  81.8158 278.2972 15.08842299 63127,6917.873,95.437,540.584,538.892,0.0
52838.0,STARLINK-4092,PAYLOAD,2023-08-05 13:59:57,15.08855379,0.0001295,53.2179,325.8424,101.5222,258.5915,0.00032865,4.949e-05,0.0,0 STARLINK-4092,1 52838U 22062J   23217.58330945  .00004949  00000-0  32865-3 0  9993,2 52838  53.2179 325.8424 0001295 101.5222 258.5915 15.08855379 63299,6917.833,95.437,540.594,538.803,0.0
52838.0,STARLINK-4092,PAYLOAD,2023-08-05 18:46:06,15.08866135,0.0001006,53.2166,324.9495,76.2032,283.9072,0.00045127,6.906e-05,0.0,0 STARLINK-4092,1 52838U 22062J   23217.78202253  .00006906  00000-0  45127-3 0  9995,2 52838  53.2166 324.9495 0001006  76.2032 283.9072 15.08866135 63322,6917.801,95.436,540.361,538.97,0.0
52838.0,STARLINK-4092,PAYLOAD,2023-08-06 10:40:00,15.0881449,0.000111,53.2173,321.9714,110.6639,249.4472,-0.00028555,-4.826e-05,0.0,0 STARLINK-4092,1 52838U 22062J   23218.44445187 -.00004826  00000-0 -28555-3 0  9991,2 52838  53.2173 321.9714 0001110 110.6639 249.4472 15.08814490 63422,6917.958,95.439,540.591,539.055,0.0
52838.0,STARLINK-4092,PAYLOAD,2023-08-06 23:23:06,15.0882048,9.56e-05,53.2173,319.5949,92.6912,267.419,-0.00014924,-2.661e-05,0.0,0 STARLINK-4092,1 52838U 22062J   23218.97437659 -.00002661  00000-0 -14924-3 0  9994,2 52838  53.2173 319.5949 0000956  92.6912 267.4190 15.08820480 63507,6917.94,95.439,540.466,539.144,0.0
52838.0,STARLINK-4092,PAYLOAD,2023-08-07 18:27:43,15.08845192,0.0001663,53.2167,316.0267,145.1501,214.96,4.529e-06,-2.16e-06,0.0,0 STARLINK-4092,1 52838U 22062J   23219.76925211 -.00000216  00000-0  45290-5 0  9993,2 52838  53.2167 316.0267 0001663 145.1501 214.9600 15.08845192 63622,6917.865,95.437,540.88,538.579,0.0
52838.0,STARLINK-4092,PAYLOAD,2023-08-08 16:43:06,15.08885553,9e-05,53.216,311.8635,97.0332,263.0763,0.0013323,0.00021006,0.0,0 STARLINK-4092,1 52838U 22062J   23220.69660637  .00021006  00000-0  13323-2 0  9993,2 52838  53.2160 311.8635 0000900  97.0332 263.0763 15.08885553 63762,6917.741,95.435,540.229,538.984,0.0
52838.0,STARLINK-4092,PAYLOAD,2023-08-09 05:26:11,15.08858395,0.0001193,53.2156,309.4843,84.554,275.5589,0.00028295,4.22e-05,0.0,0 STARLINK-4092,1 52838U 22062J   23221.22652738  .00004220  00000-0  28295-3 0  9990,2 52838  53.2156 309.4843 0001193  84.5540 275.5589 15.08858395 63845,6917.824,95.436,540.514,538.864,0.0
52838.0,STARLINK-4092,PAYLOAD,2023-08-09 13:23:07,15.08853186,8.44e-05,53.2162,307.9962,145.3191,214.7856,0.00026951,4.006e-05,0.0,0 STARLINK-4092,1 52838U 22062J   23221.55772401  .00004006  00000-0  26951-3 0  9995,2 52838  53.2162 307.9962 0000844 145.3191 214.7856 15.08853186 63897,6917.84,95.437,540.289,539.121,0.0
52838.0,STARLINK-4092,PAYLOAD,2023-08-10 10:03:08,15.0884615,0.000156,53.2158,304.1299,80.7038,279.413,0.0011205,0.00017593,0.0,0 STARLINK-4092,1 52838U 22062J   23222.41885203  .00017593  00000-0  11205-2 0  9996,2 52838  53.2158 304.1299 0001560  80.7038 279.4130 15.08846150 64024,6917.862,95.437,540.806,538.647,0.0
52838.0,STARLINK-4092,PAYLOAD,2023-08-10 22:46:13,15.08840357,9.8e-05,53.2169,301.7475,99.9542,260.1561,0.00031374,4.709e-05,0.0,0 STARLINK-4092,1 52838U 22062J   23222.94876971  .00004709  00000-0  31374-3 0  9991,2 52838  53.2169 301.7475 0000980  99.9542 260.1561 15.08840357 64109,6917.879,95.438,540.422,539.066,0.0
52838.0,STARLINK-4092,PAYLOAD,2023-08-12 09:44:42,15.08843835,0.0001371,53.2154,295.2117,65.2908,294.8226,1.7722e-07,-2.85e-06,0.0,0 STARLINK-4092,1 52838U 22062J   23224.40604966 -.00000285  00000-0  17722-6 0  9997,2 52838  53.2154 295.2117 0001371  65.2908 294.8226 15.08843835 64320,6917.869,95.437,540.682,538.785,0.0
52838.0,STARLINK-4092,PAYLOAD,2023-08-12 16:06:14,15.08850084,0.0001143,53.217,294.0225,64.267,295.844,0.00013295,1.829e-05,0.0,0 STARLINK-4092,1 52838U 22062J   23224.67100535  .00001829  00000-0  13295-3 0  9991,2 52838  53.2170 294.0225 0001143  64.2670 295.8440 15.08850084 64364,6917.85,95.437,540.505,538.924,0.0
52838.0,STARLINK-4092,PAYLOAD,2023-08-13 04:49:20,15.08837701,0.0001106,53.215,291.6423,80.091,280.0207,5.1601e-05,5.33e-06,0.0,0 STARLINK-4092,1 52838U 22062J   23225.20093179  .00000533  00000-0  51601-4 0  9991,2 52838  53.2150 291.6423 0001106  80.0910 280.0207 15.08837701 64444,6917.887,95.438,540.518,538.987,0.0
52838.0,STARLINK-4092,PAYLOAD,2023-08-14 11:01:39,15.08845051,0.0001105,53.2162,285.9907,91.1745,268.9373,0.00012238,1.661e-05,0.0,0 STARLINK-4092,1 52838U 22062J   23226.45948876  .00001661  00000-0  12238-3 0  9997,2 52838  53.2162 285.9907 0001105  91.1745 268.9373 15.08845051 64635,6917.865,95.437,540.494,538.966,0.0
52838.0,STARLINK-4092,PAYLOAD,2023-08-14 20:33:59,15.08837173,0.0001388,53.2164,284.2077,75.221,284.8936,-1.2466e-05,-4.86e-06,0.0,0 STARLINK-4092,1 52838U 22062J   23226.85693335 -.00000486  00000-0 -12466-4 0  9998,2 52838  53.2164 284.2077 0001388  75.2210 284.8936 15.08837173 64694,6917.889,95.438,540.714,538.794,0.0
52838.0,STARLINK-4092,PAYLOAD,2023-08-15 12:27:49,15.08847211,0.0001067,53.2157,281.2349,82.1505,277.9608,0.00018521,2.662e-05,0.0,0 STARLINK-4092,1 52838U 22062J   23227.51932772  .00002662  00000-0  18521-3 0  9996,2 52838  53.2157 281.2349 0001067  82.1505 277.9608 15.08847211 64797,6917.858,95.437,540.461,538.985,0.0
52838.0,STARLINK-4092,PAYLOAD,2023-08-15 20:24:45,15.08841098,0.0001049,53.2154,279.7481,78.349,281.762,9.3572e-05,1.202e-05,0.0,0 STARLINK-4092,1 52838U 22062J   23227.85053019  .00001202  00000-0  93572-4 0  9990,2 52838  53.2154 279.7481 0001049  78.3490 281.7620 15.08841098 64843,6917.877,95.437,540.468,539.016,0.0
52838.0,STARLINK-4092,PAYLOAD,2023-08-17 10:34:01,15.08844716,0.000116,53.2148,272.6121,84.877,275.2355,0.00017766,2.541e-05,0.0,0 STARLINK-4092,1 52838U 22062J   23229.44029000  .00002541  00000-0  17766-3 0  9997,2 52838  53.2148 272.6121 0001160  84.8770 275.2355 15.08844716 65086,6917.866,95.437,540.533,538.929,0.0
52838.0,STARLINK-4092,PAYLOAD,2023-08-18 02:27:52,15.08840713,0.000124,53.2143,269.6397,84.6164,275.497,9.9177e-05,1.291e-05,0.0,0 STARLINK-4092,1 52838U 22062J   23230.10269253  .00001291  00000-0  99177-4 0  9996,2 52838  53.2143 269.6397 0001240  84.6164 275.4970 15.08840713 65185,6917.878,95.438,540.601,538.885,0.0
52838.0,STARLINK-4092,PAYLOAD,2023-08-19 02:18:39,15.08838873,0.0001084,53.2149,265.1765,89.9801,270.1315,0.00011539,1.549e-05,0.0,0 STARLINK-4092,1 52838U 22062J   23231.09629497  .00001549  00000-0  11539-3 0  9996,2 52838  53.2149 265.1765 0001084  89.9801 270.1315 15.08838873 65339,6917.884,95.438,540.499,538.999,0.0
52838.0,STARLINK-4092,PAYLOAD,2023-08-19 13:26:21,15.08855819,0.0001201,53.2148,263.095,87.8137,272.2993,-0.0001399,-2.515e-05,0.0,0 STARLINK-4092,1 52838U 22062J   23231.55996589 -.00002515  00000-0 -13990-3 0  9995,2 52838  53.2148 263.0950 0001201  87.8137 272.2993 15.08855819 65403,6917.832,95.437,540.528,538.866,0.0
52838.0,STARLINK-4092,PAYLOAD,2023-08-20 11:41:45,15.08840579,0.0001334,53.2168,258.9308,93.485,266.6295,6.3727e-05,7.26e-06,0.0,0 STARLINK-4092,1 52838U 22062J   23232.48733560  .00000726  00000-0  63727-4 0  9990,2 52838  53.2168 258.9308 0001334  93.4850 266.6295 15.08840579 65541,6917.879,95.438,540.666,538.821,0.0
52838.0,STARLINK-4092,PAYLOAD,2023-08-21 02:00:14,15.08827461,0.0001398,53.2168,256.2543,96.8456,263.2696,0.00020224,2.931e-05,0.0,0 STARLINK-4092,1 52838U 22062J   23233.08350242  .00002931  00000-0  20224-3 0  9993,2 52838  53.2168 256.2543 0001398  96.8456 263.2696 15.08827461 65635,6917.919,95.438,540.751,538.817,0.0
52838.0,STARLINK-4092,PAYLOAD,2023-08-21 08:21:46,15.08840376,0.0001282,53.2162,255.0661,92.4381,267.6757,5.026e-05,5.12e-06,0.0,0 STARLINK-4092,1 52838U 22062J   23233.34845660  .00000512  00000-0  50260-4 0  9992,2 52838  53.2162 255.0661 0001282  92.4381 267.6757 15.08840376 65678,6917.879,95.438,540.631,538.857,0.0
52838.0,STARLINK-4092,PAYLOAD,2023-08-22 12:58:43,15.08840978,0.0001278,53.2159,249.7133,89.0435,271.0703,6.7487e-05,7.86e-06,0.0,0 STARLINK-4092,1 52838U 22062J   23234.54077715  .00000786  00000-0  67487-4 0  9995,2 52838  53.2159 249.7133 0001278  89.0435 271.0703 15.08840978 65853,6917.877,95.437,540.627,538.858,0.0
52838.0,STARLINK-4092,PAYLOAD,2023-08-24 09:29:31,15.08838029,0.0001242,53.2153,241.3857,96.3056,263.8078,4.1316e-05,3.7e-06,0.0,0 STARLINK-4092,1 52838U 22062J   23236.39550284  .00000370  00000-0  41316-4 0  9999,2 52838  53.2153 241.3857 0001242  96.3056 263.8078 15.08838029 65644,6917.886,95.438,540.611,538.892,0.0
52838.0,STARLINK-4092,PAYLOAD,2023-08-25 07:44:55,15.08841191,0.0001305,53.2156,237.2238,89.8451,270.269,8.2652e-05,1.028e-05,0.0,0 STARLINK-4092,1 52838U 22062J   23237.32286153  .00001028  00000-0  82652-4 0  9993,2 52838  53.2156 237.2238 0001305  89.8451 270.2690 15.08841191 66276,6917.877,95.437,540.645,538.839,0.0
52838.0,STARLINK-4092,PAYLOAD,2023-08-25 12:31:04,15.08842842,0.0001292,53.2156,236.3313,90.3887,269.7253,9.4728e-05,1.22e-05,0.0,0 STARLINK-4092,1 52838U 22062J   23237.52158010  .00001220  00000-0  94728-4 0  9996,2 52838  53.2156 236.3313 0001292  90.3887 269.7253 15.08842842 65816,6917.872,95.437,540.63,538.843,0.0
52838.0,STARLINK-4092,PAYLOAD,2023-08-26 12:21:51,15.08846055,0.0001304,53.2156,231.8707,87.4719,272.6422,0.00012102,1.639e-05,0.0,0 STARLINK-4092,1 52838U 22062J   23238.51517725  .00001639  00000-0  12102-3 0  9997,2 52838  53.2156 231.8707 0001304  87.4719 272.6422 15.08846055 65965,6917.862,95.437,540.629,538.825,0.0
